{"type": "FeatureCollection", "features": [{"type": "Feature", "properties": {"norad_id": 24946, "name": "IRIDIUM 33", "group": "iridium-33-debris", "lat": 36.960404725021554, "lon": 64.72365403802998, "alt_km": 775.089175993443, "timestamp": "2025-12-27T13:34:49.680308+00:00", "meta": {"OBJECT_NAME": "IRIDIUM 33", "OBJECT_ID": "1997-051C", "EPOCH": "2025-12-27T06:42:51.382368", "MEAN_MOTION": 14.35047449, "ECCENTRICITY": 0.00087294, "INCLINATION": 86.3857, "RA_OF_ASC_NODE": 62.1177, "ARG_OF_PERICENTER": 154.1207, "MEAN_ANOMALY": 206.0427, "EPHEMERIS_TYPE": 0, "CLASSIFICATION_TYPE": "U", "NORAD_CAT_ID": 24946, "ELEMENT_SET_NO": 999, "REV_AT_EPOCH": 48043, "BSTAR": 0.00012419962, "MEAN_MOTION_DOT": 3.74e-06, "MEAN_MOTION_DDOT": 0}, "tle": {"line1": "1 24946U 97051C   25361.27976137  .00000374  00000+0  12420-3 0  9991", "line2": "2 24946  86.3857  62.1177 0008729 154.1207 206.0427 14.35047449480435"}}, "geometry": {"type": "Point", "coordinates": [64.72365403802998, 36.960404725021554]}}, {"type": "Feature", "properties": {"norad_id": 33773, "name": "IRIDIUM 33 DEB", "group": "iridium-33-debris", "lat": 72.37268954424553, "lon": 65.73498636082545, "alt_km": 732.628588325656, "timestamp": "2025-12-27T13:34:49.680334+00:00", "meta": {"OBJECT_NAME": "IRIDIUM 33 DEB", "OBJECT_ID": "1997-051L", "EPOCH": "2025-12-27T04:55:31.304352", "MEAN_MOTION": 14.43287164, "ECCENTRICITY": 0.00133637, "INCLINATION": 86.3996, "RA_OF_ASC_NODE": 54.4587, "ARG_OF_PERICENTER": 105.064, "MEAN_ANOMALY": 255.2041, "EPHEMERIS_TYPE": 0, "CLASSIFICATION_TYPE": "U", "NORAD_CAT_ID": 33773, "ELEMENT_SET_NO": 999, "REV_AT_EPOCH": 88556, "BSTAR": 0.00032311152, "MEAN_MOTION_DOT": 1.109e-05, "MEAN_MOTION_DDOT": 0}, "tle": {"line1": "1 33773U 97051L   25361.20522343  .00001109  00000+0  32311-3 0  9996", "line2": "2 33773  86.3996  54.4587 0013363 105.0640 255.2041 14.43287164885562"}}, "geometry": {"type": "Point", "coordinates": [65.73498636082545, 72.37268954424553]}}, {"type": "Feature", "properties": {"norad_id": 33775, "name": "IRIDIUM 33 DEB", "group": "iridium-33-debris", "lat": 60.664716856685736, "lon": 49.72264653787398, "alt_km": 740.6297135605346, "timestamp": "2025-12-27T13:34:49.680349+00:00", "meta": {"OBJECT_NAME": "IRIDIUM 33 DEB", "OBJECT_ID": "1997-051N", "EPOCH": "2025-12-27T03:33:14.523264", "MEAN_MOTION": 14.41499559, "ECCENTRICITY": 0.00153981, "INCLINATION": 86.3623, "RA_OF_ASC_NODE": 43.4012, "ARG_OF_PERICENTER": 112.022, "MEAN_ANOMALY": 302.4506, "EPHEMERIS_TYPE": 0, "CLASSIFICATION_TYPE": "U", "NORAD_CAT_ID": 33775, "ELEMENT_SET_NO": 999, "REV_AT_EPOCH": 88348, "BSTAR": 0.00036781053, "MEAN_MOTION_DOT": 1.215e-05, "MEAN_MOTION_DDOT": 0}, "tle": {"line1": "1 33775U 97051N   25361.14808476  .00001215  00000+0  36781-3 0  9998", "line2": "2 33775  86.3623  43.4012 0015398 112.0220 302.4506 14.41499559883485"}}, "geometry": {"type": "Point", "coordinates": [49.72264653787398, 60.664716856685736]}}, {"type": "Feature", "properties": {"norad_id": 33776, "name": "IRIDIUM 33 DEB", "group": "iridium-33-debris", "lat": 61.57206292299099, "lon": -112.1234507647989, "alt_km": 748.0793971755056, "timestamp": "2025-12-27T13:34:49.680361+00:00", "meta": {"OBJECT_NAME": "IRIDIUM 33 DEB", "OBJECT_ID": "1997-051P", "EPOCH": "2025-12-27T06:39:04.912416", "MEAN_MOTION": 14.38259855, "ECCENTRICITY": 0.00159224, "INCLINATION": 86.403, "RA_OF_ASC_NODE": 74.6707, "ARG_OF_PERICENTER": 144.617, "MEAN_ANOMALY": 279.6987, "EPHEMERIS_TYPE": 0, "CLASSIFICATION_TYPE": "U", "NORAD_CAT_ID": 33776, "ELEMENT_SET_NO": 999, "REV_AT_EPOCH": 88291, "BSTAR": 0.00028580753, "MEAN_MOTION_DOT": 8.89e-06, "MEAN_MOTION_DDOT": 0}, "tle": {"line1": "1 33776U 97051P   25361.27714019  .00000889  00000+0  28581-3 0  9997", "line2": "2 33776  86.4030  74.6707 0015922 144.6170 279.6987 14.38259855882918"}}, "geometry": {"type": "Point", "coordinates": [-112.1234507647989, 61.57206292299099]}}, {"type": "Feature", "properties": {"norad_id": 33777, "name": "IRIDIUM 33 DEB", "group": "iridium-33-debris", "lat": 65.59864132501147, "lon": -159.27497519857712, "alt_km": 699.4576785466861, "timestamp": "2025-12-27T13:34:49.680372+00:00", "meta": {"OBJECT_NAME": "IRIDIUM 33 DEB", "OBJECT_ID": "1997-051Q", "EPOCH": "2025-12-27T03:09:33.576768", "MEAN_MOTION": 14.55714012, "ECCENTRICITY": 0.00065474, "INCLINATION": 86.3776, "RA_OF_ASC_NODE": 28.9411, "ARG_OF_PERICENTER": 189.6871, "MEAN_ANOMALY": 170.4212, "EPHEMERIS_TYPE": 0, "CLASSIFICATION_TYPE": "U", "NORAD_CAT_ID": 33777, "ELEMENT_SET_NO": 999, "REV_AT_EPOCH": 88743, "BSTAR": 0.00095764844, "MEAN_MOTION_DOT": 4.207e-05, "MEAN_MOTION_DDOT": 0}, "tle": {"line1": "1 33777U 97051Q   25361.13163862  .00004207  00000+0  95765-3 0  9993", "line2": "2 33777  86.3776  28.9411 0006547 189.6871 170.4212 14.55714012887430"}}, "geometry": {"type": "Point", "coordinates": [-159.27497519857712, 65.59864132501147]}}, {"type": "Feature", "properties": {"norad_id": 33850, "name": "IRIDIUM 33 DEB", "group": "iridium-33-debris", "lat": 77.5579714725962, "lon": 40.66384139644384, "alt_km": 736.6640959586102, "timestamp": "2025-12-27T13:34:49.680384+00:00", "meta": {"OBJECT_NAME": "IRIDIUM 33 DEB", "OBJECT_ID": "1997-051T", "EPOCH": "2025-12-27T03:33:49.339872", "MEAN_MOTION": 14.42184716, "ECCENTRICITY": 0.00133741, "INCLINATION": 86.3409, "RA_OF_ASC_NODE": 23.9831, "ARG_OF_PERICENTER": 118.3203, "MEAN_ANOMALY": 314.3735, "EPHEMERIS_TYPE": 0, "CLASSIFICATION_TYPE": "U", "NORAD_CAT_ID": 33850, "ELEMENT_SET_NO": 999, "REV_AT_EPOCH": 88360, "BSTAR": 0.00050244153, "MEAN_MOTION_DOT": 1.675e-05, "MEAN_MOTION_DDOT": 0}, "tle": {"line1": "1 33850U 97051T   25361.14848773  .00001675  00000+0  50244-3 0  9996", "line2": "2 33850  86.3409  23.9831 0013374 118.3203 314.3735 14.42184716883602"}}, "geometry": {"type": "Point", "coordinates": [40.66384139644384, 77.5579714725962]}}, {"type": "Feature", "properties": {"norad_id": 33853, "name": "IRIDIUM 33 DEB", "group": "iridium-33-debris", "lat": -32.17409343978262, "lon": -19.213396983338654, "alt_km": 1013.411483397711, "timestamp": "2025-12-27T13:34:49.680395+00:00", "meta": {"OBJECT_NAME": "IRIDIUM 33 DEB", "OBJECT_ID": "1997-051W", "EPOCH": "2025-12-26T22:39:28.276128", "MEAN_MOTION": 13.99129868, "ECCENTRICITY": 0.0207854, "INCLINATION": 86, "RA_OF_ASC_NODE": 343.582, "ARG_OF_PERICENTER": 192.009, "MEAN_ANOMALY": 244.3161, "EPHEMERIS_TYPE": 0, "CLASSIFICATION_TYPE": "U", "NORAD_CAT_ID": 33853, "ELEMENT_SET_NO": 999, "REV_AT_EPOCH": 85544, "BSTAR": 0.0013824, "MEAN_MOTION_DOT": 2.427e-05, "MEAN_MOTION_DDOT": 0}, "tle": {"line1": "1 33853U 97051W   25360.94407727  .00002427  00000+0  13824-2 0  9994", "line2": "2 33853  86.0000 343.5820 0207854 192.0090 244.3161 13.99129868855443"}}, "geometry": {"type": "Point", "coordinates": [-19.213396983338654, -32.17409343978262]}}, {"type": "Feature", "properties": {"norad_id": 33860, "name": "IRIDIUM 33 DEB", "group": "iridium-33-debris", "lat": -79.45071274803577, "lon": 0.8161155860953518, "alt_km": 672.4583329564912, "timestamp": "2025-12-27T13:34:49.680406+00:00", "meta": {"OBJECT_NAME": "IRIDIUM 33 DEB", "OBJECT_ID": "1997-051AD", "EPOCH": "2025-12-27T07:27:44.772768", "MEAN_MOTION": 14.67547387, "ECCENTRICITY": 0.00057771, "INCLINATION": 86.3828, "RA_OF_ASC_NODE": 20.7863, "ARG_OF_PERICENTER": 298.5485, "MEAN_ANOMALY": 75.5112, "EPHEMERIS_TYPE": 0, "CLASSIFICATION_TYPE": "U", "NORAD_CAT_ID": 33860, "ELEMENT_SET_NO": 999, "REV_AT_EPOCH": 88936, "BSTAR": 0.0012983936, "MEAN_MOTION_DOT": 7.389e-05, "MEAN_MOTION_DDOT": 0}, "tle": {"line1": "1 33860U 97051AD  25361.31093487  .00007389  00000+0  12984-2 0  9996", "line2": "2 33860  86.3828  20.7863 0005777 298.5485  75.5112 14.67547387889367"}}, "geometry": {"type": "Point", "coordinates": [0.8161155860953518, -79.45071274803577]}}, {"type": "Feature", "properties": {"norad_id": 33862, "name": "IRIDIUM 33 DEB", "group": "iridium-33-debris", "lat": 69.21475751416946, "lon": 40.5153335419149, "alt_km": 631.9052614683387, "timestamp": "2025-12-27T13:34:49.680417+00:00", "meta": {"OBJECT_NAME": "IRIDIUM 33 DEB", "OBJECT_ID": "1997-051AF", "EPOCH": "2025-12-27T02:04:57.806688", "MEAN_MOTION": 14.69713889, "ECCENTRICITY": 0.00518194, "INCLINATION": 86.4084, "RA_OF_ASC_NODE": 31.2018, "ARG_OF_PERICENTER": 20.9133, "MEAN_ANOMALY": 35.0712, "EPHEMERIS_TYPE": 0, "CLASSIFICATION_TYPE": "U", "NORAD_CAT_ID": 33862, "ELEMENT_SET_NO": 999, "REV_AT_EPOCH": 89034, "BSTAR": 0.0018026931, "MEAN_MOTION_DOT": 0.00010991, "MEAN_MOTION_DDOT": 0}, "tle": {"line1": "1 33862U 97051AF  25361.08678017  .00010991  00000+0  18027-2 0  9997", "line2": "2 33862  86.4084  31.2018 0051819  20.9133  35.0712 14.69713889890349"}}, "geometry": {"type": "Point", "coordinates": [40.5153335419149, 69.21475751416946]}}, {"type": "Feature", "properties": {"norad_id": 33866, "name": "IRIDIUM 33 DEB", "group": "iridium-33-debris", "lat": -66.02461331761825, "lon": 78.39617138830181, "alt_km": 897.5645128705746, "timestamp": "2025-12-27T13:34:49.680428+00:00", "meta": {"OBJECT_NAME": "IRIDIUM 33 DEB", "OBJECT_ID": "1997-051AK", "EPOCH": "2025-12-27T07:29:19.730688", "MEAN_MOTION": 14.25320809, "ECCENTRICITY": 0.01152589, "INCLINATION": 86.2998, "RA_OF_ASC_NODE": 86.8706, "ARG_OF_PERICENTER": 115.2237, "MEAN_ANOMALY": 316.9491, "EPHEMERIS_TYPE": 0, "CLASSIFICATION_TYPE": "U", "NORAD_CAT_ID": 33866, "ELEMENT_SET_NO": 999, "REV_AT_EPOCH": 87018, "BSTAR": 0.00066918778, "MEAN_MOTION_DOT": 1.709e-05, "MEAN_MOTION_DDOT": 0}, "tle": {"line1": "1 33866U 97051AK  25361.31203392  .00001709  00000+0  66919-3 0  9998", "line2": "2 33866  86.2998  86.8706 0115258 115.2237 316.9491 14.25320809870189"}}, "geometry": {"type": "Point", "coordinates": [78.39617138830181, -66.02461331761825]}}]}